[
    {
        "Altitude(m)": 610405.3415421335,
        "Argument of Periapsis(deg)": 0.0,
        "Eccentricity": 0.0,
        "Inclination(deg)": 60.0,
        "Latitude(deg)": 52.11132264113778,
        "Longitude(deg)": 57.47734194272861,
        "Mean Anomaly(deg)": 114.5455,
        "RAAN(deg)": 25.0,
        "Satellite Name": "Test1 117",
        "Satellite Number": 117,
        "Semi-Major Axis(m)": 6980739.136638005,
        "Time(s)": 0
    },
    {
        "Altitude(m)": 610321.9148667431,
        "Argument of Periapsis(deg)": 0.00010418945913296404,
        "Eccentricity": 0.0,
        "Inclination(deg)": 60.0,
        "Latitude(deg)": 51.746038413865,
        "Longitude(deg)": 58.246237632886455,
        "Mean Anomaly(deg)": 115.16560614546184,
        "RAAN(deg)": 24.99957995086026,
        "Satellite Name": "Test1 117",
        "Satellite Number": 117,
        "Semi-Major Axis(m)": 6980739.136638005,
        "Time(s)": 10
    }
]